HULIANWANG DIGUI-49     
1 65106U 25168A   26063.58653622 -.00000042  00000+0  17595-3 0  9990
2 65106  50.0049 341.1276 0007410 150.6588 209.4702 13.29338576 28772
HULIANWANG DIGUI-50     
1 65107U 25168B   26063.57813450 -.00000036  00000+0  18914-3 0  9996
2 65107  50.0020 341.0272 0008365 136.5936 223.5596 13.29339247 28771
HULIANWANG DIGUI-51     
1 65108U 25168C   26063.56976931 -.00000036  00000+0  18976-3 0  9998
2 65108  50.0057 341.0531 0009714 136.5282 223.6357 13.29339563 28770
HULIANWANG DIGUI-52     
1 65109U 25168D   26063.56152918 -.00000040  00000+0  18161-3 0  9991
2 65109  50.0051 340.9926 0009605 149.4148 210.7285 13.29338198 28774
HULIANWANG DIGUI-53     
1 65110U 25168E   26063.62835228 -.00000041  00000+0  17828-3 0  9992
2 65110  50.0058 340.7013 0008399 139.3620 220.7880 13.29338115 28782
HULIANWANG DIGUI-54     
1 65111U 25168F   26063.60347385 -.00000036  00000+0  18918-3 0  9998
2 65111  50.0008 340.4814 0009996 144.5870 215.5667 13.29335279 28786
HULIANWANG DIGUI-55     
1 65112U 25168G   26063.61992534 -.00000047  00000+0  16578-3 0  9994
2 65112  50.0014 340.5751 0011276 140.4554 219.7143 13.29338811 28783
HULIANWANG DIGUI-56     
1 65113U 25168H   26063.61159100 -.00000038  00000+0  18594-3 0  9999
2 65113  50.0006 340.5162 0010986 162.4372 197.6882 13.29338203 28789
HULIANWANG DIGUI-57     
1 65114U 25168J   26063.59514457 -.00000028  00000+0  20657-3 0  9999
2 65114  50.0034 340.4855 0008742 152.8659 207.2672 13.29335108 28794
HULIANWANG DIGUI-58     
1 65164U 25174A   26063.63220462  .00000087  00000+0  16803-3 0  9998
2 65164  86.4928 287.3412 0001254  86.8862 273.2416 13.24421030 26955
HULIANWANG DIGUI-59     
1 65165U 25174B   26063.63975563  .00000092  00000+0  17956-3 0  9994
2 65165  86.4888 287.2684 0001243  86.1986 273.9290 13.24421189 26951
HULIANWANG DIGUI-60     
1 65166U 25174C   26063.57173580  .00000090  00000+0  17649-3 0  9994
2 65166  86.4920 287.3606 0001214  88.2333 271.8941 13.24421421 26949
HULIANWANG DIGUI-61     
1 65167U 25174D   26063.57934674  .00000076  00000+0  14195-3 0  9991
2 65167  86.4929 287.3807 0001167  87.1367 272.9900 13.24419948 26942
HULIANWANG DIGUI-62     
1 65168U 25174E   26063.43576042  .00000066  00000+0  11928-3 0  9998
2 65168  86.4871 287.3190 0001166  89.3242 270.8025 13.24421287 26921
HULIANWANG DIGUI-63     
1 65169U 25174F   26063.59439579  .00000059  00000+0  10228-3 0  9993
2 65169  86.4923 287.3743 0001189  86.9362 273.1908 13.24421698 26949
HULIANWANG DIGUI-64     
1 65170U 25174G   26063.60195255  .00000054  00000+0  92795-4 0  9992
2 65170  86.4882 287.2975 0001176  89.7347 270.3922 13.24421724 26946
