[{"OBJECT_NAME":"HULIANWANG DIGUI-49","OBJECT_ID":"2025-168A","EPOCH":"2026-03-04T14:04:36.729408","MEAN_MOTION":13.29338576,"ECCENTRICITY":0.00074107,"INCLINATION":50.0049,"RA_OF_ASC_NODE":341.1276,"ARG_OF_PERICENTER":150.6588,"MEAN_ANOMALY":209.4702,"EPHEMERIS_TYPE":0,"CLASSIFICATION_TYPE":"U","NORAD_CAT_ID":65106,"ELEMENT_SET_NO":999,"REV_AT_EPOCH":2877,"BSTAR":0.00017594743,"MEAN_MOTION_DOT":-4.2e-7,"MEAN_MOTION_DDOT":0},{"OBJECT_NAME":"HULIANWANG DIGUI-50","OBJECT_ID":"2025-168B","EPOCH":"2026-03-04T13:52:30.820800","MEAN_MOTION":13.29339247,"ECCENTRICITY":0.00083651,"INCLINATION":50.002,"RA_OF_ASC_NODE":341.0272,"ARG_OF_PERICENTER":136.5936,"MEAN_ANOMALY":223.5596,"EPHEMERIS_TYPE":0,"CLASSIFICATION_TYPE":"U","NORAD_CAT_ID":65107,"ELEMENT_SET_NO":999,"REV_AT_EPOCH":2877,"BSTAR":0.00018913726,"MEAN_MOTION_DOT":-3.6e-7,"MEAN_MOTION_DDOT":0},{"OBJECT_NAME":"HULIANWANG DIGUI-51","OBJECT_ID":"2025-168C","EPOCH":"2026-03-04T13:40:28.068384","MEAN_MOTION":13.29339563,"ECCENTRICITY":0.00097144,"INCLINATION":50.0057,"RA_OF_ASC_NODE":341.0531,"ARG_OF_PERICENTER":136.5282,"MEAN_ANOMALY":223.6357,"EPHEMERIS_TYPE":0,"CLASSIFICATION_TYPE":"U","NORAD_CAT_ID":65108,"ELEMENT_SET_NO":999,"REV_AT_EPOCH":2877,"BSTAR":0.00018975962,"MEAN_MOTION_DOT":-3.6e-7,"MEAN_MOTION_DDOT":0},{"OBJECT_NAME":"HULIANWANG DIGUI-52","OBJECT_ID":"2025-168D","EPOCH":"2026-03-04T13:28:36.121152","MEAN_MOTION":13.29338198,"ECCENTRICITY":0.00096051,"INCLINATION":50.0051,"RA_OF_ASC_NODE":340.9926,"ARG_OF_PERICENTER":149.4148,"MEAN_ANOMALY":210.7285,"EPHEMERIS_TYPE":0,"CLASSIFICATION_TYPE":"U","NORAD_CAT_ID":65109,"ELEMENT_SET_NO":999,"REV_AT_EPOCH":2877,"BSTAR":0.00018161196,"MEAN_MOTION_DOT":-4.0e-7,"MEAN_MOTION_DDOT":0},{"OBJECT_NAME":"HULIANWANG DIGUI-53","OBJECT_ID":"2025-168E","EPOCH":"2026-03-04T15:04:49.636992","MEAN_MOTION":13.29338115,"ECCENTRICITY":0.00083993,"INCLINATION":50.0058,"RA_OF_ASC_NODE":340.7013,"ARG_OF_PERICENTER":139.362,"MEAN_ANOMALY":220.788,"EPHEMERIS_TYPE":0,"CLASSIFICATION_TYPE":"U","NORAD_CAT_ID":65110,"ELEMENT_SET_NO":999,"REV_AT_EPOCH":2878,"BSTAR":0.00017828429,"MEAN_MOTION_DOT":-4.1e-7,"MEAN_MOTION_DDOT":0},{"OBJECT_NAME":"HULIANWANG DIGUI-54","OBJECT_ID":"2025-168F","EPOCH":"2026-03-04T14:29:00.140640","MEAN_MOTION":13.29335279,"ECCENTRICITY":0.00099968,"INCLINATION":50.0008,"RA_OF_ASC_NODE":340.4814,"ARG_OF_PERICENTER":144.587,"MEAN_ANOMALY":215.5667,"EPHEMERIS_TYPE":0,"CLASSIFICATION_TYPE":"U","NORAD_CAT_ID":65111,"ELEMENT_SET_NO":999,"REV_AT_EPOCH":2878,"BSTAR":0.00018917873,"MEAN_MOTION_DOT":-3.6e-7,"MEAN_MOTION_DDOT":0},{"OBJECT_NAME":"HULIANWANG DIGUI-55","OBJECT_ID":"2025-168G","EPOCH":"2026-03-04T14:52:41.549376","MEAN_MOTION":13.29338811,"ECCENTRICITY":0.0011276,"INCLINATION":50.0014,"RA_OF_ASC_NODE":340.5751,"ARG_OF_PERICENTER":140.4554,"MEAN_ANOMALY":219.7143,"EPHEMERIS_TYPE":0,"CLASSIFICATION_TYPE":"U","NORAD_CAT_ID":65112,"ELEMENT_SET_NO":999,"REV_AT_EPOCH":2878,"BSTAR":0.00016577672,"MEAN_MOTION_DOT":-4.7e-7,"MEAN_MOTION_DDOT":0},{"OBJECT_NAME":"HULIANWANG DIGUI-56","OBJECT_ID":"2025-168H","EPOCH":"2026-03-04T14:40:41.462400","MEAN_MOTION":13.29338203,"ECCENTRICITY":0.00109862,"INCLINATION":50.0006,"RA_OF_ASC_NODE":340.5162,"ARG_OF_PERICENTER":162.4372,"MEAN_ANOMALY":197.6882,"EPHEMERIS_TYPE":0,"CLASSIFICATION_TYPE":"U","NORAD_CAT_ID":65113,"ELEMENT_SET_NO":999,"REV_AT_EPOCH":2878,"BSTAR":0.00018594072,"MEAN_MOTION_DOT":-3.8e-7,"MEAN_MOTION_DDOT":0},{"OBJECT_NAME":"HULIANWANG DIGUI-57","OBJECT_ID":"2025-168J","EPOCH":"2026-03-04T14:17:00.490848","MEAN_MOTION":13.29335108,"ECCENTRICITY":0.00087426,"INCLINATION":50.0034,"RA_OF_ASC_NODE":340.4855,"ARG_OF_PERICENTER":152.8659,"MEAN_ANOMALY":207.2672,"EPHEMERIS_TYPE":0,"CLASSIFICATION_TYPE":"U","NORAD_CAT_ID":65114,"ELEMENT_SET_NO":999,"REV_AT_EPOCH":2879,"BSTAR":0.00020657132,"MEAN_MOTION_DOT":-2.8e-7,"MEAN_MOTION_DDOT":0},{"OBJECT_NAME":"HULIANWANG DIGUI-58","OBJECT_ID":"2025-174A","EPOCH":"2026-03-04T15:10:22.479168","MEAN_MOTION":13.2442103,"ECCENTRICITY":0.0001254,"INCLINATION":86.4928,"RA_OF_ASC_NODE":287.3412,"ARG_OF_PERICENTER":86.8862,"MEAN_ANOMALY":273.2416,"EPHEMERIS_TYPE":0,"CLASSIFICATION_TYPE":"U","NORAD_CAT_ID":65164,"ELEMENT_SET_NO":999,"REV_AT_EPOCH":2695,"BSTAR":0.0001680335,"MEAN_MOTION_DOT":8.7e-7,"MEAN_MOTION_DDOT":0},{"OBJECT_NAME":"HULIANWANG DIGUI-59","OBJECT_ID":"2025-174B","EPOCH":"2026-03-04T15:21:14.886432","MEAN_MOTION":13.24421189,"ECCENTRICITY":0.00012438,"INCLINATION":86.4888,"RA_OF_ASC_NODE":287.2684,"ARG_OF_PERICENTER":86.1986,"MEAN_ANOMALY":273.929,"EPHEMERIS_TYPE":0,"CLASSIFICATION_TYPE":"U","NORAD_CAT_ID":65165,"ELEMENT_SET_NO":999,"REV_AT_EPOCH":2695,"BSTAR":0.00017956033,"MEAN_MOTION_DOT":9.2e-7,"MEAN_MOTION_DDOT":0},{"OBJECT_NAME":"HULIANWANG DIGUI-60","OBJECT_ID":"2025-174C","EPOCH":"2026-03-04T13:43:17.973120","MEAN_MOTION":13.24421421,"ECCENTRICITY":0.00012147,"INCLINATION":86.492,"RA_OF_ASC_NODE":287.3606,"ARG_OF_PERICENTER":88.2333,"MEAN_ANOMALY":271.8941,"EPHEMERIS_TYPE":0,"CLASSIFICATION_TYPE":"U","NORAD_CAT_ID":65166,"ELEMENT_SET_NO":999,"REV_AT_EPOCH":2694,"BSTAR":0.0001764949,"MEAN_MOTION_DOT":9.0e-7,"MEAN_MOTION_DDOT":0},{"OBJECT_NAME":"HULIANWANG DIGUI-61","OBJECT_ID":"2025-174D","EPOCH":"2026-03-04T13:54:15.558336","MEAN_MOTION":13.24419948,"ECCENTRICITY":0.00011673,"INCLINATION":86.4929,"RA_OF_ASC_NODE":287.3807,"ARG_OF_PERICENTER":87.1367,"MEAN_ANOMALY":272.99,"EPHEMERIS_TYPE":0,"CLASSIFICATION_TYPE":"U","NORAD_CAT_ID":65167,"ELEMENT_SET_NO":999,"REV_AT_EPOCH":2694,"BSTAR":0.000141954,"MEAN_MOTION_DOT":7.6e-7,"MEAN_MOTION_DDOT":0},{"OBJECT_NAME":"HULIANWANG DIGUI-62","OBJECT_ID":"2025-174E","EPOCH":"2026-03-04T10:27:29.700288","MEAN_MOTION":13.24421287,"ECCENTRICITY":0.00011668,"INCLINATION":86.4871,"RA_OF_ASC_NODE":287.319,"ARG_OF_PERICENTER":89.3242,"MEAN_ANOMALY":270.8025,"EPHEMERIS_TYPE":0,"CLASSIFICATION_TYPE":"U","NORAD_CAT_ID":65168,"ELEMENT_SET_NO":999,"REV_AT_EPOCH":2692,"BSTAR":0.00011928163,"MEAN_MOTION_DOT":6.6e-7,"MEAN_MOTION_DDOT":0},{"OBJECT_NAME":"HULIANWANG DIGUI-63","OBJECT_ID":"2025-174F","EPOCH":"2026-03-04T14:15:55.796256","MEAN_MOTION":13.24421698,"ECCENTRICITY":0.00011895,"INCLINATION":86.4923,"RA_OF_ASC_NODE":287.3743,"ARG_OF_PERICENTER":86.9362,"MEAN_ANOMALY":273.1908,"EPHEMERIS_TYPE":0,"CLASSIFICATION_TYPE":"U","NORAD_CAT_ID":65169,"ELEMENT_SET_NO":999,"REV_AT_EPOCH":2694,"BSTAR":0.00010228347,"MEAN_MOTION_DOT":5.9e-7,"MEAN_MOTION_DDOT":0},{"OBJECT_NAME":"HULIANWANG DIGUI-64","OBJECT_ID":"2025-174G","EPOCH":"2026-03-04T14:26:48.700320","MEAN_MOTION":13.24421724,"ECCENTRICITY":0.00011764,"INCLINATION":86.4882,"RA_OF_ASC_NODE":287.2975,"ARG_OF_PERICENTER":89.7347,"MEAN_ANOMALY":270.3922,"EPHEMERIS_TYPE":0,"CLASSIFICATION_TYPE":"U","NORAD_CAT_ID":65170,"ELEMENT_SET_NO":999,"REV_AT_EPOCH":2694,"BSTAR":9.2794584e-5,"MEAN_MOTION_DOT":5.4e-7,"MEAN_MOTION_DDOT":0}]
